{"features":[{"geometry":null,"properties":{"area_desc":"Boulder And Jefferson Counties Below 6000 Feet/West Broomfield County","certainty":"Likely","description":"Gusty west winds and single-digit relative humidity are expected over the foothills and adjacent plains. Any fire that develops will spread rapidly.","event":"Red Flag Warning","expires_at":"2026-09-07T02:00:00Z","headline":"Red Flag Warning issued September 5 at 3:12PM MDT until September 6 at 8:00PM MDT by NWS Denver CO","id":"urn:oid:2.49.0.1.840.0.fixture-red-flag-bou-2026-09-06","instruction":"A Red Flag Warning means that critical fire weather conditions are either occurring now or will shortly.","office":"BOU","onset":"2026-09-06T17:00:00Z","phenomenon_time":"2026-09-05T21:12:00Z","sender":"NWS Denver CO","severity":"Severe","source_id":"nws.alerts","ugc":["COZ039"],"urgency":"Expected"},"type":"Feature"}],"generated_at":"2026-09-06T05:00:00Z","schema_version":"1.0","source_id":"nws.alerts","type":"FeatureCollection"}
