{"features":[{"geometry":{"coordinates":[[[-105.75,39.8],[-104.95,39.8],[-104.95,40.2],[-105.75,40.2],[-105.75,39.8]]],"type":"Polygon"},"properties":{"dm":0,"expires_at":"2026-09-15T06:00:00Z","id":"0-91001","label":"D0","national_area_sq_mi":1210345.2,"national_categorical_pct":11.2,"national_cumulative_pct":34.1,"period_end":"2026-09-07T06:00:00Z","period_start":"2026-09-01T06:00:00Z","phenomenon_time":"2026-09-01T06:00:00Z","release_date":"2026-09-03T12:30:00Z","source_id":"usdm.current"},"type":"Feature"},{"geometry":{"coordinates":[[[-105.3,39.8],[-104.95,39.8],[-104.95,40.2],[-105.3,40.2],[-105.3,39.8]]],"type":"Polygon"},"properties":{"dm":1,"expires_at":"2026-09-15T06:00:00Z","id":"1-91002","label":"D1","national_area_sq_mi":812004.7,"national_categorical_pct":9.8,"national_cumulative_pct":22.9,"period_end":"2026-09-07T06:00:00Z","period_start":"2026-09-01T06:00:00Z","phenomenon_time":"2026-09-01T06:00:00Z","release_date":"2026-09-03T12:30:00Z","source_id":"usdm.current"},"type":"Feature"}],"generated_at":"2026-09-06T05:00:00Z","schema_version":"1.0","source_id":"usdm.current","type":"FeatureCollection"}
