{"generated_at":"2026-09-06T05:00:00Z","geometry":{"coordinates":[[[[-106.19,39.29],[-104.62,39.29],[-104.62,40.99],[-105.4,40.99],[-106.19,40.4],[-106.19,39.29]]]],"type":"MultiPolygon"},"properties":{"area_sqkm":12814,"boundary_version":"v1","huc8":["10190002","10190003","10190004","10190005","10190006","10190007"],"id":"bioregion/front-range","method":"ST_Union of the six v1 HUC-8 subbasins (WBD), intersected with the union of EPA Level IV ecoregion polygons where US_L3CODE = '21' (Southern Rockies) or US_L4CODE = '25l' (Front Range Fans); ST_MakeValid + ST_Buffer(0); parts smaller than 1% of the total area dropped; ST_CollectionExtract(..., 3).","name":"Front Range Bioregion","rationale_url":"https://data.bioregionaltwin.org/boundary/v1.md","ring":"A"},"schema_version":"1.0","type":"Feature"}
